NORAD_CAT_ID,OBJECT_NAME,OBJECT_TYPE,EPOCH,MEAN_MOTION,ECCENTRICITY,INCLINATION,RA_OF_ASC_NODE,ARG_OF_PERICENTER,MEAN_ANOMALY,BSTAR,MEAN_MOTION_DOT,MEAN_MOTION_DDOT,TLE_LINE0,TLE_LINE1,TLE_LINE2,SEMIMAJOR_AXIS,PERIOD,APOGEE,PERIGEE,DECAYED
55636.0,STARLINK-5218,PAYLOAD,2023-04-22 01:07:31,14.99148371,0.0003183,70.0,338.4971,262.3299,97.7499,6.8307e-05,7.39e-06,0.0,0 STARLINK-5218,1 55636U 23021J   23112.04689118  .00000739  00000-0  68307-4 0  9996,2 55636  70.0000 338.4971 0003183 262.3299  97.7499 14.99148371 10628,6947.663,96.055,571.74,567.317,0.0
55636.0,STARLINK-5218,PAYLOAD,2023-04-22 20:20:31,14.99137272,0.0002895,70.0013,336.4768,256.5742,103.5095,6.0268e-05,6.41e-06,0.0,0 STARLINK-5218,1 55636U 23021J   23112.84758450  .00000641  00000-0  60268-4 0  9990,2 55636  70.0013 336.4768 0002895 256.5742 103.5095 14.99137272 10447,6947.698,96.055,571.574,567.551,0.0
55636.0,STARLINK-5218,PAYLOAD,2023-04-23 13:57:25,14.99141967,0.0002832,70.0008,334.6218,268.4595,91.624,-6.5467e-05,-8.91e-06,0.0,0 STARLINK-5218,1 55636U 23021J   23113.58154943 -.00000891  00000-0 -65467-4 0  9994,2 55636  70.0008 334.6218 0002832 268.4595  91.6240 14.99141967 10850,6947.683,96.055,571.516,567.58,0.0
55636.0,STARLINK-5218,PAYLOAD,2023-04-24 13:58:38,14.99150562,0.0002927,70.0002,332.095,266.9514,93.1311,0.00011648,1.326e-05,0.0,0 STARLINK-5218,1 55636U 23021J   23114.58239431  .00001326  00000-0  11648-3 0  9994,2 55636  70.0002 332.0950 0002927 266.9514  93.1311 14.99150562 11003,6947.657,96.054,571.555,567.488,0.0
55636.0,STARLINK-5218,PAYLOAD,2023-04-25 13:59:56,14.99106015,0.0003265,69.9994,329.5678,265.8371,94.2415,-0.00036421,-4.525e-05,0.0,0 STARLINK-5218,1 55636U 23021J   23115.58329683 -.00004525  00000-0 -36421-3 0  9996,2 55636  69.9994 329.5678 0003265 265.8371  94.2415 14.99106015 11150,6947.794,96.057,571.928,567.391,0.0
55636.0,STARLINK-5218,PAYLOAD,2023-04-26 14:01:09,14.9913923,0.0003394,69.9971,327.041,268.3825,91.6946,-0.00015075,-1.93e-05,0.0,0 STARLINK-5218,1 55636U 23021J   23116.58414004 -.00001930  00000-0 -15075-3 0  9998,2 55636  69.9971 327.0410 0003394 268.3825  91.6946 14.99139230 11309,6947.692,96.055,571.915,567.198,0.0
55636.0,STARLINK-5218,PAYLOAD,2023-04-26 20:25:29,14.99144466,0.0003392,69.9975,326.3665,266.3975,93.6797,-7.5429e-05,-1.013e-05,0.0,0 STARLINK-5218,1 55636U 23021J   23116.85103066 -.00001013  00000-0 -75429-4 0  9993,2 55636  69.9975 326.3665 0003392 266.3975  93.6797 14.99144466 11346,6947.675,96.055,571.897,567.184,0.0
55636.0,STARLINK-5218,PAYLOAD,2023-04-27 12:26:18,14.9925454,0.0004414,70.0005,324.6826,262.2031,97.8628,-0.0016119,-0.00019741,0.0,0 STARLINK-5218,1 55636U 23021J   23117.51826570 -.00019741  00000-0 -16119-2 0  9995,2 55636  70.0005 324.6826 0004414 262.2031  97.8628 14.99254540 11442,6947.335,96.048,572.267,566.134,0.0
55636.0,STARLINK-5218,PAYLOAD,2023-04-28 04:27:46,14.987052,0.0004478,69.9997,322.9997,269.1303,90.9343,-0.0043213,-0.00051782,0.0,0 STARLINK-5218,1 55636U 23021J   23118.18596018 -.00051782  00000-0 -43213-2 0  9996,2 55636  69.9997 322.9997 0004478 269.1303  90.9343 14.98705200 11246,6949.033,96.083,574.01,567.786,0.0
55636.0,STARLINK-5218,PAYLOAD,2023-04-28 07:40:02,14.98668168,0.0004398,69.9994,322.663,268.8068,91.2587,-0.0045509,-0.00054455,0.0,0 STARLINK-5218,1 55636U 23021J   23118.31947434 -.00054455  00000-0 -45509-2 0  9993,2 55636  69.9994 322.6630 0004398 268.8068  91.2587 14.98668168 11266,6949.147,96.085,574.069,567.956,0.0
55636.0,STARLINK-5218,PAYLOAD,2023-04-28 20:28:56,14.98644625,0.0004633,69.9995,321.3169,267.1253,92.9376,-0.0043723,-0.00052307,0.0,0 STARLINK-5218,1 55636U 23021J   23118.85343007 -.00052307  00000-0 -43723-2 0  9998,2 55636  69.9995 321.3169 0004633 267.1253  92.9376 14.98644625 11345,6949.22,96.087,574.305,567.866,0.0
55636.0,STARLINK-5218,PAYLOAD,2023-04-29 14:06:14,14.98557799,0.0004506,69.9985,319.4638,268.6316,91.4327,-0.0033594,-0.00040189,0.0,0 STARLINK-5218,1 55636U 23021J   23119.58767217 -.00040189  00000-0 -33594-2 0  9992,2 55636  69.9985 319.4638 0004506 268.6316  91.4327 14.98557799 11758,6949.489,96.092,574.485,568.222,0.0
55636.0,STARLINK-5218,PAYLOAD,2023-04-29 17:18:29,14.98541616,0.0004054,69.9986,319.1271,265.784,94.2856,-0.0031397,-0.00037564,0.0,0 STARLINK-5218,1 55636U 23021J   23119.72117822 -.00037564  00000-0 -31397-2 0  9991,2 55636  69.9986 319.1271 0004054 265.7840  94.2856 14.98541616 11475,6949.539,96.093,574.221,568.586,0.0
55636.0,STARLINK-5218,PAYLOAD,2023-04-30 14:08:15,14.98324145,0.0004882,69.9987,316.9386,268.6588,91.4011,-6.0203e-05,-8.12e-06,0.0,0 STARLINK-5218,1 55636U 23021J   23120.58906258 -.00000812  00000-0 -60203-4 0  9992,2 55636  69.9987 316.9386 0004882 268.6588  91.4011 14.98324145 11601,6950.211,96.107,575.469,568.683,0.0
55636.0,STARLINK-5218,PAYLOAD,2023-05-01 12:34:07,14.98330104,0.0004833,69.9993,314.5826,267.7755,92.285,-9.7351e-05,-1.255e-05,0.0,0 STARLINK-5218,1 55636U 23021J   23121.52370240 -.00001255  00000-0 -97351-4 0  9999,2 55636  69.9993 314.5826 0004833 267.7755  92.2850 14.98330104 12044,6950.193,96.107,575.417,568.699,0.0
55636.0,STARLINK-5218,PAYLOAD,2023-05-01 14:10:15,14.98330573,0.0004805,69.9995,314.4145,266.9847,93.0762,-8.9702e-05,-1.164e-05,0.0,0 STARLINK-5218,1 55636U 23021J   23121.59046182 -.00001164  00000-0 -89702-4 0  9991,2 55636  69.9995 314.4145 0004805 266.9847  93.0762 14.98330573 11759,6950.191,96.107,575.396,568.717,0.0
55636.0,STARLINK-5218,PAYLOAD,2023-05-01 22:10:55,14.98334485,0.0004906,69.9992,313.5724,267.8804,92.1793,-4.5596e-05,-6.37e-06,0.0,0 STARLINK-5218,1 55636U 23021J   23121.92425794 -.00000637  00000-0 -45596-4 0  9995,2 55636  69.9992 313.5724 0004906 267.8804  92.1793 14.98334485 12104,6950.179,96.107,575.454,568.634,0.0
55636.0,STARLINK-5218,PAYLOAD,2023-05-02 12:36:08,14.9831326,0.0004703,69.9991,312.057,256.7537,103.3097,0.00027914,3.238e-05,0.0,0 STARLINK-5218,1 55636U 23021J   23122.52510006  .00003238  00000-0  27914-3 0  9994,2 55636  69.9991 312.0570 0004703 256.7537 103.3097 14.98313260 12190,6950.245,96.108,575.378,568.841,0.0
55636.0,STARLINK-5218,PAYLOAD,2023-05-02 19:00:40,14.98320339,0.0004668,69.9994,311.3841,257.4717,102.592,0.00018896,2.162e-05,0.0,0 STARLINK-5218,1 55636U 23021J   23122.79214027  .00002162  00000-0  18896-3 0  9991,2 55636  69.9994 311.3841 0004668 257.4717 102.5920 14.98320339 11936,6950.223,96.108,575.332,568.843,0.0
55636.0,STARLINK-5218,PAYLOAD,2023-05-02 20:36:48,14.9832596,0.0004644,69.9997,311.2162,261.6023,98.461,0.00013056,1.465e-05,0.0,0 STARLINK-5218,1 55636U 23021J   23122.85889864  .00001465  00000-0  13056-3 0  9993,2 55636  69.9997 311.2162 0004644 261.6023  98.4610 14.98325960 12244,6950.205,96.107,575.298,568.843,0.0
55636.0,STARLINK-5218,PAYLOAD,2023-05-03 14:14:17,14.98328708,0.0004917,69.9985,309.3618,268.5586,91.501,-8.9596e-06,-2e-06,0.0,0 STARLINK-5218,1 55636U 23021J   23123.59326109 -.00000200  00000-0 -89596-5 0  9995,2 55636  69.9985 309.3618 0004917 268.5586  91.5010 14.98328708 12351,6950.197,96.107,575.479,568.644,0.0
55636.0,STARLINK-5218,PAYLOAD,2023-05-03 20:38:49,14.98330375,0.0004888,69.9992,308.6887,270.5691,89.4908,8.0754e-06,3e-08,0.0,0 STARLINK-5218,1 55636U 23021J   23123.86029941  .00000003  00000-0  80754-5 0  9995,2 55636  69.9992 308.6887 0004888 270.5691  89.4908 14.98330375 12092,6950.192,96.107,575.454,568.659,0.0
55636.0,STARLINK-5218,PAYLOAD,2023-05-04 12:40:10,14.98331151,0.0004961,69.9987,307.0067,268.8966,91.1625,-1.7725e-05,-3.05e-06,0.0,0 STARLINK-5218,1 55636U 23021J   23124.52789946 -.00000305  00000-0 -17725-4 0  9991,2 55636  69.9987 307.0067 0004961 268.8966  91.1625 14.98331151 12499,6950.189,96.107,575.502,568.606,0.0
55636.0,STARLINK-5218,PAYLOAD,2023-05-04 20:40:50,14.98332919,0.0004935,69.9986,306.1644,268.5857,91.4737,2.4436e-05,1.98e-06,0.0,0 STARLINK-5218,1 55636U 23021J   23124.86169666  .00000198  00000-0  24436-4 0  9994,2 55636  69.9986 306.1644 0004935 268.5857  91.4737 14.98332919 12542,6950.184,96.107,575.479,568.619,0.0
55636.0,STARLINK-5218,PAYLOAD,2023-05-04 22:16:58,14.98333967,0.0004923,69.9986,305.9961,268.4264,91.6331,3.1293e-05,2.8e-06,0.0,0 STARLINK-5218,1 55636U 23021J   23124.92845561  .00000280  00000-0  31293-4 0  9997,2 55636  69.9986 305.9961 0004923 268.4264  91.6331 14.98333967 12253,6950.181,96.107,575.467,568.624,0.0
55636.0,STARLINK-5218,PAYLOAD,2023-05-05 20:42:51,14.98332248,0.0004923,69.999,303.6407,268.4864,91.5731,2.9982e-05,2.65e-06,0.0,0 STARLINK-5218,1 55636U 23021J   23125.86309562  .00000265  00000-0  29982-4 0  9992,2 55636  69.9990 303.6407 0004923 268.4864  91.5731 14.98332248 12696,6950.186,96.107,575.473,568.629,0.0
55636.0,STARLINK-5218,PAYLOAD,2023-05-05 22:18:59,14.98332771,0.0004923,69.999,303.4724,268.5191,91.5404,3.5149e-05,3.26e-06,0.0,0 STARLINK-5218,1 55636U 23021J   23125.92985503  .00000326  00000-0  35149-4 0  9994,2 55636  69.9990 303.4724 0004923 268.5191  91.5404 14.98332771 12407,6950.184,96.107,575.471,568.628,0.0
55636.0,STARLINK-5218,PAYLOAD,2023-05-06 14:20:20,14.98331518,0.0004852,69.9995,301.7891,269.0767,90.9836,8.7704e-07,-8.3e-07,0.0,0 STARLINK-5218,1 55636U 23021J   23126.59745675 -.00000083  00000-0  87704-6 0  9999,2 55636  69.9995 301.7891 0004852 269.0767  90.9836 14.98331518 12808,6950.188,96.107,575.425,568.681,0.0
55636.0,STARLINK-5218,PAYLOAD,2023-05-07 12:46:13,14.98325445,0.0004759,69.9997,299.4329,269.908,90.1534,-7.2229e-05,-9.55e-06,0.0,0 STARLINK-5218,1 55636U 23021J   23127.53210210 -.00000955  00000-0 -72229-4 0  9999,2 55636  69.9997 299.4329 0004759 269.9080  90.1534 14.98325445 12643,6950.207,96.107,575.38,568.764,0.0
55636.0,STARLINK-5218,PAYLOAD,2023-05-07 20:46:53,14.98326279,0.0004737,69.9996,298.5913,269.8543,90.2074,-3.8071e-05,-5.47e-06,0.0,0 STARLINK-5218,1 55636U 23021J   23127.86590141 -.00000547  00000-0 -38071-4 0  9993,2 55636  69.9996 298.5913 0004737 269.8543  90.2074 14.98326279 12994,6950.204,96.107,575.362,568.777,0.0
